{
  "type": "FeatureCollection",
  "features": [
    {
      "type": "Feature",
      "properties": {
        "norad_id": 31088,
        "name": "FENGYUN 1C DEB",
        "group": "fengyun-1c-debris",
        "lat": 38.9813849819252,
        "lon": -124.68947227993365,
        "alt_km": 789.4903721923711,
        "timestamp": "2025-12-13T08:49:15.966832+00:00",
        "meta_object_name": "FENGYUN 1C DEB",
        "meta_object_id": "1999-025BGJ",
        "meta_epoch": "2025-12-10T23:35:54.153024",
        "meta_mean_motion": 14.28673975,
        "meta_eccentricity": 0.0028747,
        "meta_inclination": 99.411,
        "meta_ra_of_asc_node": 45.0274,
        "meta_arg_of_pericenter": 66.9057,
        "meta_mean_anomaly": 56.8691,
        "meta_ephemeris_type": 0,
        "meta_classification_type": "U",
        "meta_norad_cat_id": 31088,
        "meta_element_set_no": 999,
        "meta_rev_at_epoch": 96524,
        "meta_bstar": 0.0023648,
        "meta_mean_motion_dot": 5.925e-05,
        "meta_mean_motion_ddot": 0,
        "tle_line1": "1 31088U 99025BGJ 25344.98326566  .00005925  00000+0  23648-2 0  9993",
        "tle_line2": "2 31088  99.4110  45.0274 0028747  66.9057  56.8691 14.28673975965242"
      },
      "geometry": {
        "type": "Point",
        "coordinates": [
          -124.68947227993365,
          38.9813849819252
        ]
      }
    },
    {
      "type": "Feature",
      "properties": {
        "norad_id": 31089,
        "name": "FENGYUN 1C DEB",
        "group": "fengyun-1c-debris",
        "lat": 37.48752182894092,
        "lon": -43.65816562114386,
        "alt_km": 872.57190568837,
        "timestamp": "2025-12-13T08:49:15.966842+00:00",
        "meta_object_name": "FENGYUN 1C DEB",
        "meta_object_id": "1999-025BGK",
        "meta_epoch": "2025-12-12T20:46:20.080416",
        "meta_mean_motion": 13.88324329,
        "meta_eccentricity": 0.02059906,
        "meta_inclination": 98.9502,
        "meta_ra_of_asc_node": 128.9176,
        "meta_arg_of_pericenter": 211.2264,
        "meta_mean_anomaly": 305.0345,
        "meta_ephemeris_type": 0,
        "meta_classification_type": "U",
        "meta_norad_cat_id": 31089,
        "meta_element_set_no": 999,
        "meta_rev_at_epoch": 68061,
        "meta_bstar": 0.0012379636,
        "meta_mean_motion_dot": 1.713e-05,
        "meta_mean_motion_ddot": 0,
        "tle_line1": "1 31089U 99025BGK 25346.86551019  .00001713  00000+0  12380-2 0  9998",
        "tle_line2": "2 31089  98.9502 128.9176 0205990 211.2264 305.0345 13.88324329680617"
      },
      "geometry": {
        "type": "Point",
        "coordinates": [
          -43.65816562114386,
          37.48752182894092
        ]
      }
    },
    {
      "type": "Feature",
      "properties": {
        "norad_id": 31090,
        "name": "FENGYUN 1C DEB",
        "group": "fengyun-1c-debris",
        "lat": -7.238282798255184,
        "lon": -89.61171565470423,
        "alt_km": 448.50710006275403,
        "timestamp": "2025-12-13T08:49:15.966853+00:00",
        "meta_object_name": "FENGYUN 1C DEB",
        "meta_object_id": "1999-025BGL",
        "meta_epoch": "2025-12-12T19:28:59.119968",
        "meta_mean_motion": 15.33409114,
        "meta_eccentricity": 0.00552626,
        "meta_inclination": 98.9826,
        "meta_ra_of_asc_node": 90.8649,
        "meta_arg_of_pericenter": 132.2909,
        "meta_mean_anomaly": 228.3033,
        "meta_ephemeris_type": 0,
        "meta_classification_type": "U",
        "meta_norad_cat_id": 31090,
        "meta_element_set_no": 999,
        "meta_rev_at_epoch": 839,
        "meta_bstar": 0.0023064939,
        "meta_mean_motion_dot": 0.00078803,
        "meta_mean_motion_ddot": 0,
        "tle_line1": "1 31090U 99025BGL 25346.81179537  .00078803  00000+0  23065-2 0  9992",
        "tle_line2": "2 31090  98.9826  90.8649 0055262 132.2909 228.3033 15.33409114  8391"
      },
      "geometry": {
        "type": "Point",
        "coordinates": [
          -89.61171565470423,
          -7.238282798255184
        ]
      }
    },
    {
      "type": "Feature",
      "properties": {
        "norad_id": 31091,
        "name": "FENGYUN 1C DEB",
        "group": "fengyun-1c-debris",
        "lat": -47.37993669929219,
        "lon": -25.44863145652029,
        "alt_km": 854.9464475825025,
        "timestamp": "2025-12-13T08:49:15.966863+00:00",
        "meta_object_name": "FENGYUN 1C DEB",
        "meta_object_id": "1999-025BGM",
        "meta_epoch": "2025-12-10T04:47:50.827776",
        "meta_mean_motion": 13.54141266,
        "meta_eccentricity": 0.02908089,
        "meta_inclination": 99.2244,
        "meta_ra_of_asc_node": 321.4211,
        "meta_arg_of_pericenter": 335.4456,
        "meta_mean_anomaly": 23.3063,
        "meta_ephemeris_type": 0,
        "meta_classification_type": "U",
        "meta_norad_cat_id": 31091,
        "meta_element_set_no": 999,
        "meta_rev_at_epoch": 61605,
        "meta_bstar": 0.0012568098,
        "meta_mean_motion_dot": 1.075e-05,
        "meta_mean_motion_ddot": 0,
        "tle_line1": "1 31091U 99025BGM 25344.19989384  .00001075  00000+0  12568-2 0  9994",
        "tle_line2": "2 31091  99.2244 321.4211 0290808 335.4456  23.3063 13.54141266616055"
      },
      "geometry": {
        "type": "Point",
        "coordinates": [
          -25.44863145652029,
          -47.37993669929219
        ]
      }
    },
    {
      "type": "Feature",
      "properties": {
        "norad_id": 31092,
        "name": "FENGYUN 1C DEB",
        "group": "fengyun-1c-debris",
        "lat": -59.36070989077249,
        "lon": 120.03071557932489,
        "alt_km": 1326.1938243006543,
        "timestamp": "2025-12-13T08:49:15.966873+00:00",
        "meta_object_name": "FENGYUN 1C DEB",
        "meta_object_id": "1999-025BGN",
        "meta_epoch": "2025-12-12T18:52:28.918848",
        "meta_mean_motion": 13.46534271,
        "meta_eccentricity": 0.03271548,
        "meta_inclination": 99.7205,
        "meta_ra_of_asc_node": 102.6457,
        "meta_arg_of_pericenter": 136.686,
        "meta_mean_anomaly": 226.0493,
        "meta_ephemeris_type": 0,
        "meta_classification_type": "U",
        "meta_norad_cat_id": 31092,
        "meta_element_set_no": 999,
        "meta_rev_at_epoch": 91882,
        "meta_bstar": 0.002642085,
        "meta_mean_motion_dot": 2.163e-05,
        "meta_mean_motion_ddot": 0,
        "tle_line1": "1 31092U 99025BGN 25346.78644582  .00002163  00000+0  26421-2 0  9992",
        "tle_line2": "2 31092  99.7205 102.6457 0327154 136.6860 226.0493 13.46534271918826"
      },
      "geometry": {
        "type": "Point",
        "coordinates": [
          120.03071557932489,
          -59.36070989077249
        ]
      }
    },
    {
      "type": "Feature",
      "properties": {
        "norad_id": 31093,
        "name": "FENGYUN 1C DEB",
        "group": "fengyun-1c-debris",
        "lat": 10.266871398403236,
        "lon": 7.8807217824791,
        "alt_km": 867.0142339277563,
        "timestamp": "2025-12-13T08:49:15.966883+00:00",
        "meta_object_name": "FENGYUN 1C DEB",
        "meta_object_id": "1999-025BGP",
        "meta_epoch": "2025-12-12T00:40:42.308544",
        "meta_mean_motion": 13.80631235,
        "meta_eccentricity": 0.02082019,
        "meta_inclination": 98.5948,
        "meta_ra_of_asc_node": 185.0918,
        "meta_arg_of_pericenter": 225.1214,
        "meta_mean_anomaly": 133.2872,
        "meta_ephemeris_type": 0,
        "meta_classification_type": "U",
        "meta_norad_cat_id": 31093,
        "meta_element_set_no": 999,
        "meta_rev_at_epoch": 94497,
        "meta_bstar": 0.00063492544,
        "meta_mean_motion_dot": 7.45e-06,
        "meta_mean_motion_ddot": 0,
        "tle_line1": "1 31093U 99025BGP 25346.02826746  .00000745  00000+0  63493-3 0  9999",
        "tle_line2": "2 31093  98.5948 185.0918 0208201 225.1214 133.2872 13.80631235944974"
      },
      "geometry": {
        "type": "Point",
        "coordinates": [
          7.8807217824791,
          10.266871398403236
        ]
      }
    },
    {
      "type": "Feature",
      "properties": {
        "norad_id": 31094,
        "name": "FENGYUN 1C DEB",
        "group": "fengyun-1c-debris",
        "lat": -16.806305105057,
        "lon": -142.09628170600058,
        "alt_km": 854.7173843452774,
        "timestamp": "2025-12-13T08:49:15.966894+00:00",
        "meta_object_name": "FENGYUN 1C DEB",
        "meta_object_id": "1999-025BGQ",
        "meta_epoch": "2025-12-12T02:04:19.594560",
        "meta_mean_motion": 14.02038873,
        "meta_eccentricity": 0.01064654,
        "meta_inclination": 98.856,
        "meta_ra_of_asc_node": 213.9601,
        "meta_arg_of_pericenter": 48.8046,
        "meta_mean_anomaly": 312.224,
        "meta_ephemeris_type": 0,
        "meta_classification_type": "U",
        "meta_norad_cat_id": 31094,
        "meta_element_set_no": 999,
        "meta_rev_at_epoch": 95610,
        "meta_bstar": 0.002208045,
        "meta_mean_motion_dot": 3.5e-05,
        "meta_mean_motion_ddot": 0,
        "tle_line1": "1 31094U 99025BGQ 25346.08633790  .00003500  00000+0  22080-2 0  9999",
        "tle_line2": "2 31094  98.8560 213.9601 0106465  48.8046 312.2240 14.02038873956100"
      },
      "geometry": {
        "type": "Point",
        "coordinates": [
          -142.09628170600058,
          -16.806305105057
        ]
      }
    }
  ]
}